[{"OBJECT_NAME":"RASCOM-QAF 1R","OBJECT_ID":"2010-037B","EPOCH":"2026-03-09T22:24:40.518720","MEAN_MOTION":1.00272393,"ECCENTRICITY":0.00065208,"INCLINATION":0.0391,"RA_OF_ASC_NODE":112.6651,"ARG_OF_PERICENTER":228.4471,"MEAN_ANOMALY":165.5415,"EPHEMERIS_TYPE":0,"CLASSIFICATION_TYPE":"U","NORAD_CAT_ID":36831,"ELEMENT_SET_NO":999,"REV_AT_EPOCH":5731,"BSTAR":0,"MEAN_MOTION_DOT":2.0e-7,"MEAN_MOTION_DDOT":0},{"OBJECT_NAME":"EUTELSAT KONNECT VHTS","OBJECT_ID":"2022-110A","EPOCH":"2026-03-09T23:00:22.480992","MEAN_MOTION":1.00279208,"ECCENTRICITY":0.00032344,"INCLINATION":0.057,"RA_OF_ASC_NODE":104.2803,"ARG_OF_PERICENTER":219.7938,"MEAN_ANOMALY":191.354,"EPHEMERIS_TYPE":0,"CLASSIFICATION_TYPE":"U","NORAD_CAT_ID":53765,"ELEMENT_SET_NO":999,"REV_AT_EPOCH":584,"BSTAR":0,"MEAN_MOTION_DOT":2.0e-7,"MEAN_MOTION_DDOT":0}]
